[{"OBJECT_NAME":"POLYITAN-1","OBJECT_ID":"2014-033AJ","EPOCH":"2026-03-09T22:27:50.258304","MEAN_MOTION":15.29568085,"ECCENTRICITY":0.00093607,"INCLINATION":98.1053,"RA_OF_ASC_NODE":86.0432,"ARG_OF_PERICENTER":127.248,"MEAN_ANOMALY":232.9614,"EPHEMERIS_TYPE":0,"CLASSIFICATION_TYPE":"U","NORAD_CAT_ID":40042,"ELEMENT_SET_NO":999,"REV_AT_EPOCH":63840,"BSTAR":0.00083772474,"MEAN_MOTION_DOT":0.00024003,"MEAN_MOTION_DDOT":0},{"OBJECT_NAME":"STARLINK-33578","OBJECT_ID":"2025-063F","EPOCH":"2026-03-09T22:35:34.359360","MEAN_MOTION":15.3018665,"ECCENTRICITY":0.00013078,"INCLINATION":53.1613,"RA_OF_ASC_NODE":48.7626,"ARG_OF_PERICENTER":100.5813,"MEAN_ANOMALY":259.5335,"EPHEMERIS_TYPE":0,"CLASSIFICATION_TYPE":"U","NORAD_CAT_ID":63368,"ELEMENT_SET_NO":999,"REV_AT_EPOCH":5477,"BSTAR":0.0009055418,"MEAN_MOTION_DOT":0.00026545,"MEAN_MOTION_DDOT":0}]
